{
  "type": "FeatureCollection",
  "features": [
    {
      "type": "Feature",
      "properties": {
        "norad_id": 66590,
        "name": "STARLINK-35429",
        "group": "last-30-days",
        "lat": -9.335334856396585,
        "lon": -159.66911823521,
        "alt_km": 403.00606083784623,
        "timestamp": "2025-12-09T16:56:35.359620+00:00",
        "meta_object_name": "STARLINK-35429",
        "meta_object_id": "2025-270C",
        "meta_epoch": "2025-12-09T12:00:02.000160",
        "meta_mean_motion": 15.55894364,
        "meta_eccentricity": 0.0001542,
        "meta_inclination": 42.9994,
        "meta_ra_of_asc_node": 211.7057,
        "meta_arg_of_pericenter": 255.9623,
        "meta_mean_anomaly": 15.7684,
        "meta_ephemeris_type": 0,
        "meta_classification_type": "U",
        "meta_norad_cat_id": 66590,
        "meta_element_set_no": 999,
        "meta_rev_at_epoch": 398,
        "meta_bstar": -0.032048,
        "meta_mean_motion_dot": -0.02036681,
        "meta_mean_motion_ddot": 0,
        "tle_line1": "1 66590U 25270C   25343.50002315 -.02036681  00000+0 -32048-1 0  9990",
        "tle_line2": "2 66590  42.9994 211.7057 0001542 255.9623  15.7684 15.55894364  3983"
      },
      "geometry": {
        "type": "Point",
        "coordinates": [
          -159.66911823521,
          -9.335334856396585
        ]
      }
    },
    {
      "type": "Feature",
      "properties": {
        "norad_id": 66591,
        "name": "STARLINK-36058",
        "group": "last-30-days",
        "lat": -6.7523224981216705,
        "lon": -156.81745091853247,
        "alt_km": 402.8558767326458,
        "timestamp": "2025-12-09T16:56:35.359630+00:00",
        "meta_object_name": "STARLINK-36058",
        "meta_object_id": "2025-270D",
        "meta_epoch": "2025-12-09T12:00:02.000160",
        "meta_mean_motion": 15.55890209,
        "meta_eccentricity": 0.000172,
        "meta_inclination": 42.9996,
        "meta_ra_of_asc_node": 211.696,
        "meta_arg_of_pericenter": 253.8314,
        "meta_mean_anomaly": 21.7343,
        "meta_ephemeris_type": 0,
        "meta_classification_type": "U",
        "meta_norad_cat_id": 66591,
        "meta_element_set_no": 999,
        "meta_rev_at_epoch": 388,
        "meta_bstar": -0.031993,
        "meta_mean_motion_dot": -0.02033416,
        "meta_mean_motion_ddot": 0,
        "tle_line1": "1 66591U 25270D   25343.50002315 -.02033416  00000+0 -31993-1 0  9992",
        "tle_line2": "2 66591  42.9996 211.6960 0001720 253.8314  21.7343 15.55890209  3882"
      },
      "geometry": {
        "type": "Point",
        "coordinates": [
          -156.81745091853247,
          -6.7523224981216705
        ]
      }
    },
    {
      "type": "Feature",
      "properties": {
        "norad_id": 66592,
        "name": "STARLINK-36066",
        "group": "last-30-days",
        "lat": -5.454912312588783,
        "lon": -155.4043396566543,
        "alt_km": 402.7020491930325,
        "timestamp": "2025-12-09T16:56:35.359640+00:00",
        "meta_object_name": "STARLINK-36066",
        "meta_object_id": "2025-270E",
        "meta_epoch": "2025-12-09T12:00:02.000160",
        "meta_mean_motion": 15.55888675,
        "meta_eccentricity": 0.0001661,
        "meta_inclination": 42.9996,
        "meta_ra_of_asc_node": 211.6914,
        "meta_arg_of_pericenter": 255.4859,
        "meta_mean_anomaly": 21.9971,
        "meta_ephemeris_type": 0,
        "meta_classification_type": "U",
        "meta_norad_cat_id": 66592,
        "meta_element_set_no": 999,
        "meta_rev_at_epoch": 378,
        "meta_bstar": -0.031938,
        "meta_mean_motion_dot": -0.02030146,
        "meta_mean_motion_ddot": 0,
        "tle_line1": "1 66592U 25270E   25343.50002315 -.02030146  00000+0 -31938-1 0  9999",
        "tle_line2": "2 66592  42.9996 211.6914 0001661 255.4859  21.9971 15.55888675  3780"
      },
      "geometry": {
        "type": "Point",
        "coordinates": [
          -155.4043396566543,
          -5.454912312588783
        ]
      }
    },
    {
      "type": "Feature",
      "properties": {
        "norad_id": 66593,
        "name": "STARLINK-36031",
        "group": "last-30-days",
        "lat": -4.152039356457443,
        "lon": -153.99534036188118,
        "alt_km": 402.7108263917971,
        "timestamp": "2025-12-09T16:56:35.359650+00:00",
        "meta_object_name": "STARLINK-36031",
        "meta_object_id": "2025-270F",
        "meta_epoch": "2025-12-09T12:00:02.000160",
        "meta_mean_motion": 15.55889924,
        "meta_eccentricity": 0.0001695,
        "meta_inclination": 42.9995,
        "meta_ra_of_asc_node": 211.6865,
        "meta_arg_of_pericenter": 250.1943,
        "meta_mean_anomaly": 29.2072,
        "meta_ephemeris_type": 0,
        "meta_classification_type": "U",
        "meta_norad_cat_id": 66593,
        "meta_element_set_no": 999,
        "meta_rev_at_epoch": 388,
        "meta_bstar": -0.031962,
        "meta_mean_motion_dot": -0.02031584,
        "meta_mean_motion_ddot": 0,
        "tle_line1": "1 66593U 25270F   25343.50002315 -.02031584  00000+0 -31962-1 0  9994",
        "tle_line2": "2 66593  42.9995 211.6865 0001695 250.1943  29.2072 15.55889924  3880"
      },
      "geometry": {
        "type": "Point",
        "coordinates": [
          -153.99534036188118,
          -4.152039356457443
        ]
      }
    },
    {
      "type": "Feature",
      "properties": {
        "norad_id": 66594,
        "name": "STARLINK-36032",
        "group": "last-30-days",
        "lat": -2.8489009589982928,
        "lon": -152.5933048499126,
        "alt_km": 402.5120832756793,
        "timestamp": "2025-12-09T16:56:35.359662+00:00",
        "meta_object_name": "STARLINK-36032",
        "meta_object_id": "2025-270G",
        "meta_epoch": "2025-12-09T12:00:02.000160",
        "meta_mean_motion": 15.55893574,
        "meta_eccentricity": 0.0001645,
        "meta_inclination": 42.9995,
        "meta_ra_of_asc_node": 211.6817,
        "meta_arg_of_pericenter": 253.2818,
        "meta_mean_anomaly": 28.0345,
        "meta_ephemeris_type": 0,
        "meta_classification_type": "U",
        "meta_norad_cat_id": 66594,
        "meta_element_set_no": 999,
        "meta_rev_at_epoch": 361,
        "meta_bstar": -0.032081,
        "meta_mean_motion_dot": -0.02038552,
        "meta_mean_motion_ddot": 0,
        "tle_line1": "1 66594U 25270G   25343.50002315 -.02038552  00000+0 -32081-1 0  9990",
        "tle_line2": "2 66594  42.9995 211.6817 0001645 253.2818  28.0345 15.55893574  3615"
      },
      "geometry": {
        "type": "Point",
        "coordinates": [
          -152.5933048499126,
          -2.8489009589982928
        ]
      }
    },
    {
      "type": "Feature",
      "properties": {
        "norad_id": 66595,
        "name": "STARLINK-35711",
        "group": "last-30-days",
        "lat": -1.5424060545154457,
        "lon": -151.1933014000093,
        "alt_km": 402.32386409543597,
        "timestamp": "2025-12-09T16:56:35.359674+00:00",
        "meta_object_name": "STARLINK-35711",
        "meta_object_id": "2025-270H",
        "meta_epoch": "2025-12-09T12:00:02.000160",
        "meta_mean_motion": 15.55897231,
        "meta_eccentricity": 0.0001649,
        "meta_inclination": 42.9993,
        "meta_ra_of_asc_node": 211.6763,
        "meta_arg_of_pericenter": 255.9208,
        "meta_mean_anomaly": 27.3115,
        "meta_ephemeris_type": 0,
        "meta_classification_type": "U",
        "meta_norad_cat_id": 66595,
        "meta_element_set_no": 999,
        "meta_rev_at_epoch": 398,
        "meta_bstar": -0.032151,
        "meta_mean_motion_dot": -0.02042778,
        "meta_mean_motion_ddot": 0,
        "tle_line1": "1 66595U 25270H   25343.50002315 -.02042778  00000+0 -32151-1 0  9994",
        "tle_line2": "2 66595  42.9993 211.6763 0001649 255.9208  27.3115 15.55897231  3981"
      },
      "geometry": {
        "type": "Point",
        "coordinates": [
          -151.1933014000093,
          -1.5424060545154457
        ]
      }
    },
    {
      "type": "Feature",
      "properties": {
        "norad_id": 66596,
        "name": "STARLINK-35811",
        "group": "last-30-days",
        "lat": -0.23572117663949108,
        "lon": -149.79477886973058,
        "alt_km": 402.16330636735984,
        "timestamp": "2025-12-09T16:56:35.359684+00:00",
        "meta_object_name": "STARLINK-35811",
        "meta_object_id": "2025-270J",
        "meta_epoch": "2025-12-09T12:00:02.000160",
        "meta_mean_motion": 15.55895609,
        "meta_eccentricity": 0.0001611,
        "meta_inclination": 42.9994,
        "meta_ra_of_asc_node": 211.6719,
        "meta_arg_of_pericenter": 257.2129,
        "meta_mean_anomaly": 27.9376,
        "meta_ephemeris_type": 0,
        "meta_classification_type": "U",
        "meta_norad_cat_id": 66596,
        "meta_element_set_no": 999,
        "meta_rev_at_epoch": 398,
        "meta_bstar": -0.032117,
        "meta_mean_motion_dot": -0.02040762,
        "meta_mean_motion_ddot": 0,
        "tle_line1": "1 66596U 25270J   25343.50002315 -.02040762  00000+0 -32117-1 0  9998",
        "tle_line2": "2 66596  42.9994 211.6719 0001611 257.2129  27.9376 15.55895609  3982"
      },
      "geometry": {
        "type": "Point",
        "coordinates": [
          -149.79477886973058,
          -0.23572117663949108
        ]
      }
    }
  ]
}